[{"OBJECT_NAME":"ONEWEB-0183","OBJECT_ID":"2021-031K","EPOCH":"2025-07-31T10:21:06.852384","MEAN_MOTION":13.14503645,"ECCENTRICITY":0.0001785,"INCLINATION":87.9064,"RA_OF_ASC_NODE":353.5456,"ARG_OF_PERICENTER":103.2216,"MEAN_ANOMALY":256.9113,"EPHEMERIS_TYPE":0,"CLASSIFICATION_TYPE":"U","NORAD_CAT_ID":48219,"ELEMENT_SET_NO":999,"REV_AT_EPOCH":20618,"BSTAR":-4.166e-5,"MEAN_MOTION_DOT":-3.0e-8,"MEAN_MOTION_DDOT":0},{"OBJECT_NAME":"ONEWEB-0185","OBJECT_ID":"2021-031L","EPOCH":"2025-07-31T20:06:49.343040","MEAN_MOTION":13.14501643,"ECCENTRICITY":0.0001471,"INCLINATION":87.9067,"RA_OF_ASC_NODE":353.4305,"ARG_OF_PERICENTER":107.1451,"MEAN_ANOMALY":252.9839,"EPHEMERIS_TYPE":0,"CLASSIFICATION_TYPE":"U","NORAD_CAT_ID":48220,"ELEMENT_SET_NO":999,"REV_AT_EPOCH":20616,"BSTAR":0.00051808,"MEAN_MOTION_DOT":2.05e-6,"MEAN_MOTION_DDOT":0},{"OBJECT_NAME":"ONEWEB-0187","OBJECT_ID":"2021-031M","EPOCH":"2025-07-31T19:38:05.593920","MEAN_MOTION":13.1450266,"ECCENTRICITY":0.0001498,"INCLINATION":87.9067,"RA_OF_ASC_NODE":353.4813,"ARG_OF_PERICENTER":97.6616,"MEAN_ANOMALY":262.4684,"EPHEMERIS_TYPE":0,"CLASSIFICATION_TYPE":"U","NORAD_CAT_ID":48221,"ELEMENT_SET_NO":999,"REV_AT_EPOCH":20617,"BSTAR":-0.00028341,"MEAN_MOTION_DOT":-9.2e-7,"MEAN_MOTION_DDOT":0},{"OBJECT_NAME":"ONEWEB-0192","OBJECT_ID":"2021-031N","EPOCH":"2025-07-31T15:15:40.833792","MEAN_MOTION":13.14503851,"ECCENTRICITY":0.0001785,"INCLINATION":87.9071,"RA_OF_ASC_NODE":353.5101,"ARG_OF_PERICENTER":93.5954,"MEAN_ANOMALY":266.538,"EPHEMERIS_TYPE":0,"CLASSIFICATION_TYPE":"U","NORAD_CAT_ID":48222,"ELEMENT_SET_NO":999,"REV_AT_EPOCH":20606,"BSTAR":-3.7442e-5,"MEAN_MOTION_DOT":-1.0e-8,"MEAN_MOTION_DDOT":0},{"OBJECT_NAME":"ONEWEB-0219","OBJECT_ID":"2021-031P","EPOCH":"2025-07-31T11:06:48.187872","MEAN_MOTION":13.1450494,"ECCENTRICITY":0.0001506,"INCLINATION":87.907,"RA_OF_ASC_NODE":353.5171,"ARG_OF_PERICENTER":99.6345,"MEAN_ANOMALY":260.4955,"EPHEMERIS_TYPE":0,"CLASSIFICATION_TYPE":"U","NORAD_CAT_ID":48223,"ELEMENT_SET_NO":999,"REV_AT_EPOCH":20624,"BSTAR":0.00075004,"MEAN_MOTION_DOT":2.91e-6,"MEAN_MOTION_DDOT":0},{"OBJECT_NAME":"ONEWEB-0202","OBJECT_ID":"2021-031Q","EPOCH":"2025-07-31T10:39:22.464864","MEAN_MOTION":13.14504148,"ECCENTRICITY":0.0001616,"INCLINATION":87.9068,"RA_OF_ASC_NODE":353.5349,"ARG_OF_PERICENTER":71.1044,"MEAN_ANOMALY":289.0261,"EPHEMERIS_TYPE":0,"CLASSIFICATION_TYPE":"U","NORAD_CAT_ID":48224,"ELEMENT_SET_NO":999,"REV_AT_EPOCH":20622,"BSTAR":0.00031822,"MEAN_MOTION_DOT":1.31e-6,"MEAN_MOTION_DDOT":0},{"OBJECT_NAME":"ONEWEB-0204","OBJECT_ID":"2021-031R","EPOCH":"2025-07-31T15:07:40.842912","MEAN_MOTION":13.14504227,"ECCENTRICITY":0.0001849,"INCLINATION":87.9053,"RA_OF_ASC_NODE":353.4932,"ARG_OF_PERICENTER":106.3739,"MEAN_ANOMALY":253.7594,"EPHEMERIS_TYPE":0,"CLASSIFICATION_TYPE":"U","NORAD_CAT_ID":48225,"ELEMENT_SET_NO":999,"REV_AT_EPOCH":20614,"BSTAR":0.00014351,"MEAN_MOTION_DOT":6.6e-7,"MEAN_MOTION_DDOT":0},{"OBJECT_NAME":"ONEWEB-0205","OBJECT_ID":"2021-031S","EPOCH":"2025-07-31T10:53:04.875360","MEAN_MOTION":13.14501691,"ECCENTRICITY":0.0001569,"INCLINATION":87.9068,"RA_OF_ASC_NODE":353.5165,"ARG_OF_PERICENTER":97.1701,"MEAN_ANOMALY":262.9607,"EPHEMERIS_TYPE":0,"CLASSIFICATION_TYPE":"U","NORAD_CAT_ID":48226,"ELEMENT_SET_NO":999,"REV_AT_EPOCH":20613,"BSTAR":0.00073735,"MEAN_MOTION_DOT":2.86e-6,"MEAN_MOTION_DDOT":0},{"OBJECT_NAME":"ONEWEB-0206","OBJECT_ID":"2021-031T","EPOCH":"2025-07-31T10:14:14.884224","MEAN_MOTION":13.14504785,"ECCENTRICITY":0.0001754,"INCLINATION":87.9065,"RA_OF_ASC_NODE":353.5013,"ARG_OF_PERICENTER":98.6361,"MEAN_ANOMALY":261.4967,"EPHEMERIS_TYPE":0,"CLASSIFICATION_TYPE":"U","NORAD_CAT_ID":48227,"ELEMENT_SET_NO":999,"REV_AT_EPOCH":20608,"BSTAR":-0.00026547,"MEAN_MOTION_DOT":-8.6e-7,"MEAN_MOTION_DDOT":0},{"OBJECT_NAME":"ONEWEB-0182","OBJECT_ID":"2021-031U","EPOCH":"2025-07-31T15:36:15.202080","MEAN_MOTION":13.14503408,"ECCENTRICITY":0.000181,"INCLINATION":87.9066,"RA_OF_ASC_NODE":353.5015,"ARG_OF_PERICENTER":104.0736,"MEAN_ANOMALY":256.0595,"EPHEMERIS_TYPE":0,"CLASSIFICATION_TYPE":"U","NORAD_CAT_ID":48228,"ELEMENT_SET_NO":999,"REV_AT_EPOCH":20632,"BSTAR":-0.00032841,"MEAN_MOTION_DOT":-1.09e-6,"MEAN_MOTION_DDOT":0},{"OBJECT_NAME":"ONEWEB-0186","OBJECT_ID":"2021-031V","EPOCH":"2025-07-31T10:23:23.458560","MEAN_MOTION":13.14502086,"ECCENTRICITY":0.0001718,"INCLINATION":87.9068,"RA_OF_ASC_NODE":353.5057,"ARG_OF_PERICENTER":96.3236,"MEAN_ANOMALY":263.809,"EPHEMERIS_TYPE":0,"CLASSIFICATION_TYPE":"U","NORAD_CAT_ID":48229,"ELEMENT_SET_NO":999,"REV_AT_EPOCH":20624,"BSTAR":-0.00021041,"MEAN_MOTION_DOT":-6.5e-7,"MEAN_MOTION_DDOT":0},{"OBJECT_NAME":"ONEWEB-0181","OBJECT_ID":"2021-031W","EPOCH":"2025-07-31T15:20:14.286336","MEAN_MOTION":13.14504564,"ECCENTRICITY":0.0001718,"INCLINATION":87.9073,"RA_OF_ASC_NODE":353.5371,"ARG_OF_PERICENTER":92.6951,"MEAN_ANOMALY":267.4375,"EPHEMERIS_TYPE":0,"CLASSIFICATION_TYPE":"U","NORAD_CAT_ID":48230,"ELEMENT_SET_NO":999,"REV_AT_EPOCH":20612,"BSTAR":-7.3979e-5,"MEAN_MOTION_DOT":-1.5e-7,"MEAN_MOTION_DDOT":0},{"OBJECT_NAME":"ONEWEB-0188","OBJECT_ID":"2021-031X","EPOCH":"2025-07-31T10:46:13.767744","MEAN_MOTION":13.14504014,"ECCENTRICITY":0.0001766,"INCLINATION":87.9069,"RA_OF_ASC_NODE":353.5657,"ARG_OF_PERICENTER":97.7765,"MEAN_ANOMALY":262.3565,"EPHEMERIS_TYPE":0,"CLASSIFICATION_TYPE":"U","NORAD_CAT_ID":48231,"ELEMENT_SET_NO":999,"REV_AT_EPOCH":20600,"BSTAR":0.00044695,"MEAN_MOTION_DOT":1.78e-6,"MEAN_MOTION_DDOT":0},{"OBJECT_NAME":"ONEWEB-0220","OBJECT_ID":"2021-031Y","EPOCH":"2025-07-31T15:22:32.614464","MEAN_MOTION":13.14502844,"ECCENTRICITY":0.0001573,"INCLINATION":87.9064,"RA_OF_ASC_NODE":353.468,"ARG_OF_PERICENTER":100.2579,"MEAN_ANOMALY":259.8728,"EPHEMERIS_TYPE":0,"CLASSIFICATION_TYPE":"U","NORAD_CAT_ID":48232,"ELEMENT_SET_NO":999,"REV_AT_EPOCH":20629,"BSTAR":-0.00027661,"MEAN_MOTION_DOT":-9.0e-7,"MEAN_MOTION_DDOT":0},{"OBJECT_NAME":"ONEWEB-0165","OBJECT_ID":"2021-031Z","EPOCH":"2025-07-31T10:34:48.466272","MEAN_MOTION":13.14502341,"ECCENTRICITY":0.0001569,"INCLINATION":87.9064,"RA_OF_ASC_NODE":353.5513,"ARG_OF_PERICENTER":97.393,"MEAN_ANOMALY":262.7378,"EPHEMERIS_TYPE":0,"CLASSIFICATION_TYPE":"U","NORAD_CAT_ID":48233,"ELEMENT_SET_NO":999,"REV_AT_EPOCH":20622,"BSTAR":0.00026726,"MEAN_MOTION_DOT":1.12e-6,"MEAN_MOTION_DDOT":0},{"OBJECT_NAME":"ONEWEB-0199","OBJECT_ID":"2021-031AA","EPOCH":"2025-07-31T10:11:58.118208","MEAN_MOTION":13.14504681,"ECCENTRICITY":0.0001957,"INCLINATION":87.9066,"RA_OF_ASC_NODE":353.5178,"ARG_OF_PERICENTER":97.4906,"MEAN_ANOMALY":262.6446,"EPHEMERIS_TYPE":0,"CLASSIFICATION_TYPE":"U","NORAD_CAT_ID":48234,"ELEMENT_SET_NO":999,"REV_AT_EPOCH":20612,"BSTAR":-0.00045283,"MEAN_MOTION_DOT":-1.55e-6,"MEAN_MOTION_DDOT":0},{"OBJECT_NAME":"ONEWEB-0203","OBJECT_ID":"2021-031AB","EPOCH":"2025-07-31T20:55:55.956288","MEAN_MOTION":13.14501726,"ECCENTRICITY":0.0001922,"INCLINATION":87.9067,"RA_OF_ASC_NODE":353.432,"ARG_OF_PERICENTER":89.6883,"MEAN_ANOMALY":270.4467,"EPHEMERIS_TYPE":0,"CLASSIFICATION_TYPE":"U","NORAD_CAT_ID":48235,"ELEMENT_SET_NO":999,"REV_AT_EPOCH":20619,"BSTAR":-0.00053442,"MEAN_MOTION_DOT":-1.85e-6,"MEAN_MOTION_DDOT":0}]
