ONEWEB-0183             
1 48219U 21031K   25212.43132931 -.00000003  00000+0 -41660-4 0  9994
2 48219  87.9064 353.5456 0001785 103.2216 256.9113 13.14503645206183
ONEWEB-0185             
1 48220U 21031L   25212.83807110  .00000205  00000+0  51808-3 0  9994
2 48220  87.9067 353.4305 0001471 107.1451 252.9839 13.14501643206161
ONEWEB-0187             
1 48221U 21031M   25212.81812030 -.00000092  00000+0 -28341-3 0  9992
2 48221  87.9067 353.4813 0001498  97.6616 262.4684 13.14502660206176
ONEWEB-0192             
1 48222U 21031N   25212.63588928 -.00000001  00000+0 -37442-4 0  9992
2 48222  87.9071 353.5101 0001785  93.5954 266.5380 13.14503851206061
ONEWEB-0219             
1 48223U 21031P   25212.46305773  .00000291  00000+0  75004-3 0  9993
2 48223  87.9070 353.5171 0001506  99.6345 260.4955 13.14504940206241
ONEWEB-0202             
1 48224U 21031Q   25212.44401001  .00000131  00000+0  31822-3 0  9996
2 48224  87.9068 353.5349 0001616  71.1044 289.0261 13.14504148206224
ONEWEB-0204             
1 48225U 21031R   25212.63033383  .00000066  00000+0  14351-3 0  9997
2 48225  87.9053 353.4932 0001849 106.3739 253.7594 13.14504227206142
ONEWEB-0205             
1 48226U 21031S   25212.45352865  .00000286  00000+0  73735-3 0  9992
2 48226  87.9068 353.5165 0001569  97.1701 262.9607 13.14501691206131
ONEWEB-0206             
1 48227U 21031T   25212.42656116 -.00000086  00000+0 -26547-3 0  9995
2 48227  87.9065 353.5013 0001754  98.6361 261.4967 13.14504785206089
ONEWEB-0182             
1 48228U 21031U   25212.65017595 -.00000109  00000+0 -32841-3 0  9993
2 48228  87.9066 353.5015 0001810 104.0736 256.0595 13.14503408206329
ONEWEB-0186             
1 48229U 21031V   25212.43291040 -.00000065  00000+0 -21041-3 0  9990
2 48229  87.9068 353.5057 0001718  96.3236 263.8090 13.14502086206241
ONEWEB-0181             
1 48230U 21031W   25212.63905424 -.00000015  00000+0 -73979-4 0  9995
2 48230  87.9073 353.5371 0001718  92.6951 267.4375 13.14504564206127
ONEWEB-0188             
1 48231U 21031X   25212.44877046  .00000178  00000+0  44695-3 0  9993
2 48231  87.9069 353.5657 0001766  97.7765 262.3565 13.14504014206004
ONEWEB-0220             
1 48232U 21031Y   25212.64065526 -.00000090  00000+0 -27661-3 0  9997
2 48232  87.9064 353.4680 0001573 100.2579 259.8728 13.14502844206296
ONEWEB-0165             
1 48233U 21031Z   25212.44083873  .00000112  00000+0  26726-3 0  9995
2 48233  87.9064 353.5513 0001569  97.3930 262.7378 13.14502341206224
ONEWEB-0199             
1 48234U 21031AA  25212.42497822 -.00000155  00000+0 -45283-3 0  9995
2 48234  87.9066 353.5178 0001957  97.4906 262.6446 13.14504681206122
ONEWEB-0203             
1 48235U 21031AB  25212.87217542 -.00000185  00000+0 -53442-3 0  9993
2 48235  87.9067 353.4320 0001922  89.6883 270.4467 13.14501726206195
